GOES 3                  
1 10953U 78062A   15040.38528419 -.00000084  00000-0  00000+0 0  9993
2 10953  14.2422 340.5459 0003625 150.2773  38.2787  1.00269140 87357
TDRS 3                  
1 19548U 88091B   15040.49992536 -.00000297  00000-0  00000+0 0  9998
2 19548  14.5420  17.4227 0039060 298.7406 300.8127  1.00275703 83818
LEASAT 5                
1 20410U 90002B   15041.03699022 -.00000075  00000-0  00000+0 0  9992
2 20410  11.1414  19.2204 0003596 228.9925 336.9099  1.00273830 77129
SKYNET 4C               
1 20776U 90079A   15041.28789314 -.00000032  00000-0  00000+0 0  9995
2 20776  13.2197  25.1162 0002327 315.6959 261.6753  1.00273866 89387
TDRS 5                  
1 21639U 91054B   15040.75482718  .00000091  00000-0  00000+0 0  9991
2 21639  13.5964  30.9559 0019364 323.3595 249.5474  1.00264765 86151
TDRS 6                  
1 22314U 93003B   15039.65800056 -.00000289  00000-0  00000+0 0  9994
2 22314  13.0569  33.7931 0006647 300.4239 355.2835  1.00274406 80832
INTELSAT 701 (IS-701)   
1 22871U 93066A   15040.34999897 -.00000219  00000-0  00000+0 0  9994
2 22871   2.5368  71.9639 0004175 249.4062 274.2215  1.00271749 77867
NATO 4B                 
1 22921U 93076A   15039.13994676  .00000133  00000-0  00000+0 0  9990
2 22921  11.4637  31.6302 0003989 293.9015 255.0859  1.00273506 77555
INTELSAT 702 (IS-702)   
1 23124U 94034A   15039.13994676  .00000148  00000-0  10000-3 0  9992
2 23124   2.8838  70.3981 0003520 257.0820 253.7061  1.00274691 89792
OPTUS B3                
1 23227U 94055A   15038.52311133 -.00000083  00000-0  00000+0 0  9996
2 23227   5.9647  57.1377 0005594 240.6683 191.9969  1.00272375 74856
ASTRA 1D                
1 23331U 94070A   15039.47398859 -.00000280  00000-0  00000+0 0  9993
2 23331   6.1547  56.2497 0003487 300.6340 244.3632  1.00270426 74689
BRASILSAT B2            
1 23536U 95016A   15039.47619973 -.00000288  00000-0  00000+0 0  9992
2 23536   5.7753  58.0002 0002145 283.9356 264.5352  1.00270435 72807
AMSC 1                  
1 23553U 95019A   15039.42533578 -.00000113  00000-0  00000+0 0  9992
2 23553   8.8497  48.1523 0003418 263.9193 235.9472  1.00271654 72612
TDRS 7                  
1 23613U 95035B   15040.07800983 -.00000197  00000-0  00000+0 0  9999
2 23613  14.4019  24.6100 0022074   0.5697 226.6177  1.00271700 71604
ASTRA 1E                
1 23686U 95055A   15040.73076932  .00000123  00000-0  00000+0 0  9991
2 23686   3.8401  66.2966 0000410 241.0109 120.5350  1.00124933 70635
ECHOSTAR 1              
1 23754U 95073A   15040.32142620 -.00000244  00000-0  10000-3 0  9990
2 23754   0.0024 143.1494 0003622 203.8143 190.6466  1.00270940 69874
ABS-1A                  
1 23768U 96003A   15040.14347566 -.00000020  00000-0  10000-3 0  9997
2 23768   6.8319  54.3916 0002552 278.4610 284.6955  1.00269300 69831
INMARSAT 3-F1           
1 23839U 96020A   15039.58299889  .00000006  00000-0  00000+0 0  9993
2 23839   2.3238  71.7327 0005704 262.0325  78.9546  1.00270121 69040
ASTRA 1F                
1 23842U 96021A   15039.64734530  .00000083  00000-0  00000+0 0  9997
2 23842   0.0466 295.0868 0004152  16.4849 114.5178  1.00272121 68927
MSAT M1                 
1 23846U 96022A   15041.42548834 -.00000088  00000-0  00000+0 0  9997
2 23846   6.3549  55.8822 0006613 244.6676 246.2903  1.00273298 68892
PALAPA C2               
1 23864U 96030A   15040.88764492 -.00000240  00000-0  10000-3 0  9990
2 23864   3.9841  64.8228 0001969 254.3797 286.0361  1.00271542 68611
INMARSAT 3-F2           
1 24307U 96053A   15041.36761958 -.00000126  00000-0  00000+0 0  9994
2 24307   0.8831  82.3614 0007245 220.5155 314.0777  1.00272160 67472
AMC-1 (GE-1)            
1 24315U 96054A   15041.25347334 -.00000104  00000-0  00000+0 0  9996
2 24315   0.0435 296.4574 0002390  89.7233 102.0472  1.00272860 67467
AFRICASAT-2 (MEASAT-2)  
1 24653U 96063B   15039.49404248 -.00000226  00000-0  00000+0 0  9997
2 24653   6.0695  56.7310 0005177 180.0384 227.3847  1.00275846 66811
EUTELSAT 48A            
1 24665U 96067A   15040.14906767  .00000115  00000-0  10000-3 0  9992
2 24665   4.8507  61.3940 0006047 257.1552 282.2884  1.00272475 67102
INMARSAT 3-F3           
1 24674U 96070A   15041.52485266  .00000036  00000-0  00000+0 0  9992
2 24674   1.7329  76.1156 0006155 236.7100 194.4729  1.00273562 66429
AMC-2 (GE-2)            
1 24713U 97002A   15041.42610580 -.00000230  00000-0  00000+0 0  9997
2 24713   2.7043  70.8100 0005684 241.9766 259.9463  1.00272590 16796
INTELSAT 26 (IS-26)     
1 24732U 97007A   15041.02987289 -.00000008  00000-0  00000+0 0  9995
2 24732   6.0363  56.9341 0003491 261.7751 257.6047  1.00272506 65759
GALAXY 25 (G-25)        
1 24812U 97026A   15039.42558733 -.00000167  00000-0  00000+0 0  9990
2 24812   0.0202 107.2392 0003055 237.5049 213.5579  1.00270749 64800
INMARSAT 3-F4           
1 24819U 97027A   15040.48313896 -.00000292  00000-0  00000+0 0  9994
2 24819   4.2205  63.0752 0005247 261.8333 294.2455  1.00274422 64818
SUPERBIRD-A3            
1 24880U 97036A   15039.70246277 -.00000276  00000-0  00000+0 0  9995
2 24880   5.1738  60.0953 0001066 241.5810 228.2005  1.00408335 64165
ABS-3                   
1 24901U 97042A   15040.34470198 -.00000032  00000-0  10000-3 0  9994
2 24901   3.2708  68.8269 0003476 246.1686 305.1747  1.00273412 63983
INTELSAT 5 (IS-5)       
1 24916U 97046A   15040.65767398 -.00000142  00000-0  00000+0 0  9996
2 24916   1.8508  75.6581 0003213 272.8339 184.6782  1.00272358 64061
METEOSAT-7              
1 24932U 97049B   15041.07519116  .00000054  00000-0  00000+0 0  9998
2 24932   9.4779  45.6240 0001128 250.2603 288.5281  1.00271729 63876
AMC-3 (GE-3)            
1 24936U 97050A   15041.49869875 -.00000275  00000-0  10000-3 0  9991
2 24936   0.0504 281.6359 0002568  25.2398 305.8877  1.00271881 63880
NSS-5                   
1 24957U 97053A   15041.07503108  .00000108  00000-0  00000+0 0  9994
2 24957   2.1583  73.9467 0003340 235.5949 267.7679  1.00273876 63671
ECHOSTAR 3              
1 25004U 97059A   15040.53741691 -.00000285  00000-0  10000-3 0  9997
2 25004   0.3924  82.7690 0001632 242.5902 305.6067  1.00271524 63579
JCSAT-1B                
1 25067U 97075A   15038.62973054 -.00000209  00000-0  10000-3 0  9997
2 25067   3.9977  64.7012 0005162 233.1205 216.2886  1.00273356 62971
ASTRA 1G                
1 25071U 97076A   15041.07524451  .00000047  00000-0  00000+0 0  9993
2 25071   0.5800  78.6629 0003690 246.9998 261.0644  1.00273653 62977
BRASILSAT B3            
1 25152U 98006A   15041.42584662 -.00000173  00000-0  00000+0 0  9997
2 25152   2.3757  73.3406 0003038 236.1153 252.0322  1.00272967 62388
INMARSAT 3-F5           
1 25153U 98006B   15041.22372653  .00000137  00000-0  00000+0 0  9990
2 25153   0.8750  71.2317 0004906 250.9087 282.9789  1.00275443 62367
EUTELSAT 16B            
1 25237U 98013A   15041.24057942  .00000098  00000-0  10000-3 0  9995
2 25237   2.6828  71.3568 0005142 256.0326 274.9952  1.00274673 62403
NSS-806                 
1 25239U 98014A   15040.17730508 -.00000282  00000-0  00000+0 0  9996
2 25239   0.0470   8.9344 0005073 295.9111 210.4335  1.00274345 62119
CHINASAT 5A (ZX 5A)     
1 25354U 98033A   15040.89349663 -.00000268  00000-0  00000+0 0  9996
2 25354   0.0504 263.7699 0002457   1.0199 338.5243  1.00273656 65683
THOR III                
1 25358U 98035A   15041.07371992 -.00000043  00000-0  00000+0 0  9994
2 25358   3.8947  64.8829 0003140 220.6295 236.5475  1.00273112 61159
INTELSAT 805 (IS-805)   
1 25371U 98037A   15041.11257894 -.00000288  00000-0  10000-3 0  9996
2 25371   0.0181 215.8916 0003396 109.2734 159.7192  1.00271961 61007
ASTRA 2A                
1 25462U 98050A   15041.22432831  .00000147  00000-0  00000+0 0  9998
2 25462   0.0424 105.2168 0000272  32.7811 110.9477  1.00275349 60238
INTELSAT 7 (IS-7)       
1 25473U 98052A   15041.17769913 -.00000146  00000-0  00000+0 0  9990
2 25473   1.4319  78.7215 0006114 215.5675 251.3930  1.00271063 60081
SIRIUS 3                
1 25492U 98056B   15041.09534241  .00000100  00000-0  00000+0 0  9999
2 25492   4.9851  60.7190 0000937 262.0474 262.6071  1.00275061 59930
AFRISTAR                
1 25515U 98063A   15041.16662539  .00000124  00000-0  00000+0 0  9999
2 25515   1.6887  71.3533 0004390 243.6993 265.8384  1.00274718 59611
INTELSAT 8 (IS-8)       
1 25522U 98065A   15038.51815647 -.00000037  00000-0  00000+0 0  9998
2 25522   0.0481 245.4363 0003057  62.2596 185.1267  1.00273427 59575
EUTELSAT 115 WEST A     
1 25558U 98070A   15041.39674556 -.00000029  00000-0  10000-3 0  9991
2 25558   1.4396  78.1984 0004357 236.1190 213.7335  1.00273348 59486
JCSAT-4A                
1 25630U 99006A   15039.56680521 -.00000160  00000-0  10000-3 0  9993
2 25630   0.5357  84.7284 0001838 222.2101 117.3980  1.00273634 58425
SKYNET 4E               
1 25639U 99009B   15041.07420779  .00000049  00000-0  00000+0 0  9991
2 25639   9.1951  35.7193 0002410 306.2006 199.7627  1.00044297 58465
ASIASAT 3S              
1 25657U 99013A   15041.47431597 -.00000366  00000-0  00000+0 0  9993
2 25657   0.7640  82.5699 0002206 229.2585 117.4220  1.00275768 58260
ASTRA 1H                
1 25785U 99033A   15038.52352744 -.00000278  00000-0  00000+0 0  9997
2 25785   2.1385  74.2762 0003729 217.9132 325.9916  1.00273583 57277
TELKOM 1                
1 25880U 99042A   15039.74556503 -.00000348  00000-0  00000+0 0  9995
2 25880   0.0187 241.7404 0002014  77.3937 195.8311  1.00272444 56795
ABS-7                   
1 25894U 99046A   15041.28504610 -.00000364  00000-0  10000-3 0  9991
2 25894   0.0139 168.5088 0002545 194.1485 356.0640  1.00270178 55591
GALAXY 27 (G-27)        
1 25922U 99052A   15040.08436169 -.00000008  00000-0  00000+0 0  9990
2 25922   1.5099  77.4426 0004149 235.9866 281.9763  1.00273788 56310
ABS-6                   
1 25924U 99053A   15041.50916457 -.00000122  00000-0  10000-3 0  9996
2 25924   0.0446 260.6184 0001608  69.2193 152.7245  1.00271553 56359
